2026-106E               
1 69101U 26106E   26135.82908956  .00000497  00000+0  33338-4 0  9999
2 69101  97.5067 218.5063 0013929 282.6221  77.3451 15.11230034   103
